IRIDIUM 921 [-]         
1 24873U 97034E   23319.28106913  .00016207  00000+0  59533-3 0  9998
2 24873  86.3898  33.3789 0004558  12.6311 347.5050 15.27801295442269
IRIDIUM 26 [-]          
1 24903U 97043A   23319.53368570  .00000457  00000+0  15055-3 0  9990
2 24903  86.3975 353.8320 0002093  98.1080 262.0354 14.36080812373527
IRIDIUM 22 [-]          
1 24907U 97043E   23319.49414488  .00000451  00000+0  15164-3 0  9994
2 24907  86.3983 356.9138 0002147  91.4973 268.6469 14.34987774373618
DUMMY MASS 1 [-]        
1 24925U 97048A   23319.25690042  .00000576  00000+0  62854-4 0  9992
2 24925  86.3378  43.2554 0008581  53.1649 307.0361 14.85926677418987
DUMMY MASS 2 [-]        
1 24926U 97048B   23319.32613084  .00000577  00000+0  63325-4 0  9997
2 24926  86.3377  44.7286 0009624  60.6543 299.5642 14.85687842418783
IRIDIUM 29 [-]          
1 24944U 97051A   23319.28617395  .00000442  00000+0  14710-3 0  9999
2 24944  86.3997  26.9598 0002112  86.9044 273.2394 14.35441942370055
IRIDIUM 33 [-]          
1 24946U 97051C   23319.25681602  .00000356  00000+0  12024-3 0  9990
2 24946  86.3912  26.2441 0008639 156.7869 203.3718 14.34176941369601
IRIDIUM 28 [-]          
1 24948U 97051E   23319.29230926  .00000505  00000+0  16592-3 0  9995
2 24948  86.4002  24.8073 0002152 105.3228 254.8207 14.36387090370575
